{"type": "FeatureCollection", "features": [{"type": "Feature", "properties": {"norad_id": 66376, "name": "SHIYAN-32 01", "group": "last-30-days", "lat": 48.00159821029902, "lon": -106.34974450990103, "alt_km": 424.8287389872903, "timestamp": "2025-12-08T19:31:47.634844+00:00", "meta": {"OBJECT_NAME": "SHIYAN-32 01", "OBJECT_ID": "2025-255A", "EPOCH": "2025-12-08T05:14:25.015776", "MEAN_MOTION": 15.42564839, "ECCENTRICITY": 0.00135684, "INCLINATION": 52.9948, "RA_OF_ASC_NODE": 199.5813, "ARG_OF_PERICENTER": 27.6494, "MEAN_ANOMALY": 332.5229, "EPHEMERIS_TYPE": 0, "CLASSIFICATION_TYPE": "U", "NORAD_CAT_ID": 66376, "ELEMENT_SET_NO": 999, "REV_AT_EPOCH": 465, "BSTAR": 0.00051469037, "MEAN_MOTION_DOT": 0.00022423, "MEAN_MOTION_DDOT": 0}, "tle": {"line1": "1 66376U 25255A   25342.21834509  .00022423  00000+0  51469-3 0  9995", "line2": "2 66376  52.9948 199.5813 0013568  27.6494 332.5229 15.42564839  4656"}}, "geometry": {"type": "Point", "coordinates": [-106.34974450990103, 48.00159821029902]}}, {"type": "Feature", "properties": {"norad_id": 66377, "name": "CZ-11 DEB", "group": "last-30-days", "lat": 14.164701257214123, "lon": 5.591673030747425, "alt_km": 439.5033929705505, "timestamp": "2025-12-08T19:31:47.634903+00:00", "meta": {"OBJECT_NAME": "CZ-11 DEB", "OBJECT_ID": "2025-255B", "EPOCH": "2025-12-08T06:24:16.452576", "MEAN_MOTION": 15.4407972, "ECCENTRICITY": 0.00138722, "INCLINATION": 52.9949, "RA_OF_ASC_NODE": 199.1704, "ARG_OF_PERICENTER": 25.1944, "MEAN_ANOMALY": 334.9735, "EPHEMERIS_TYPE": 0, "CLASSIFICATION_TYPE": "U", "NORAD_CAT_ID": 66377, "ELEMENT_SET_NO": 999, "REV_AT_EPOCH": 452, "BSTAR": 0.00086700318, "MEAN_MOTION_DOT": 0.00040173, "MEAN_MOTION_DDOT": 0}, "tle": {"line1": "1 66377U 25255B   25342.26685709  .00040173  00000+0  86700-3 0  9995", "line2": "2 66377  52.9949 199.1704 0013872  25.1944 334.9735 15.44079720  4520"}}, "geometry": {"type": "Point", "coordinates": [5.591673030747425, 14.164701257214123]}}, {"type": "Feature", "properties": {"norad_id": 66378, "name": "SHIYAN-32 02", "group": "last-30-days", "lat": -17.83536879901916, "lon": 30.52909634893346, "alt_km": 443.1908863812805, "timestamp": "2025-12-08T19:31:47.634921+00:00", "meta": {"OBJECT_NAME": "SHIYAN-32 02", "OBJECT_ID": "2025-255C", "EPOCH": "2025-12-08T06:14:06.862560", "MEAN_MOTION": 15.44728153, "ECCENTRICITY": 0.00121587, "INCLINATION": 52.9921, "RA_OF_ASC_NODE": 199.125, "ARG_OF_PERICENTER": 20.2862, "MEAN_ANOMALY": 339.8624, "EPHEMERIS_TYPE": 0, "CLASSIFICATION_TYPE": "U", "NORAD_CAT_ID": 66378, "ELEMENT_SET_NO": 999, "REV_AT_EPOCH": 452, "BSTAR": 0.00085594969, "MEAN_MOTION_DOT": 0.00040516, "MEAN_MOTION_DDOT": 0}, "tle": {"line1": "1 66378U 25255C   25342.25980165  .00040516  00000+0  85595-3 0  9991", "line2": "2 66378  52.9921 199.1250 0012158  20.2862 339.8624 15.44728153  4520"}}, "geometry": {"type": "Point", "coordinates": [30.52909634893346, -17.83536879901916]}}, {"type": "Feature", "properties": {"norad_id": 66379, "name": "SHIYAN-32 03", "group": "last-30-days", "lat": 49.85783353589174, "lon": -46.743994977482686, "alt_km": 428.2458844774037, "timestamp": "2025-12-08T19:31:47.634935+00:00", "meta": {"OBJECT_NAME": "SHIYAN-32 03", "OBJECT_ID": "2025-255D", "EPOCH": "2025-12-08T06:38:00.656736", "MEAN_MOTION": 15.42882742, "ECCENTRICITY": 0.00156249, "INCLINATION": 52.9956, "RA_OF_ASC_NODE": 199.2319, "ARG_OF_PERICENTER": 29.0029, "MEAN_ANOMALY": 331.184, "EPHEMERIS_TYPE": 0, "CLASSIFICATION_TYPE": "U", "NORAD_CAT_ID": 66379, "ELEMENT_SET_NO": 999, "REV_AT_EPOCH": 454, "BSTAR": 0.00042472397, "MEAN_MOTION_DOT": 0.00018641, "MEAN_MOTION_DDOT": 0}, "tle": {"line1": "1 66379U 25255D   25342.27639649  .00018641  00000+0  42472-3 0  9993", "line2": "2 66379  52.9956 199.2319 0015624  29.0029 331.1840 15.42882742  4549"}}, "geometry": {"type": "Point", "coordinates": [-46.743994977482686, 49.85783353589174]}}, {"type": "Feature", "properties": {"norad_id": 66380, "name": "STARLINK-35139", "group": "last-30-days", "lat": 7.649693789741087, "lon": -71.10617916539545, "alt_km": 412.7512937660713, "timestamp": "2025-12-08T19:31:47.634949+00:00", "meta": {"OBJECT_NAME": "STARLINK-35139", "OBJECT_ID": "2025-257A", "EPOCH": "2025-12-08T02:25:37.564608", "MEAN_MOTION": 15.43616721, "ECCENTRICITY": 0.00287451, "INCLINATION": 53.1605, "RA_OF_ASC_NODE": 286.5075, "ARG_OF_PERICENTER": 295.0034, "MEAN_ANOMALY": 64.7988, "EPHEMERIS_TYPE": 0, "CLASSIFICATION_TYPE": "U", "NORAD_CAT_ID": 66380, "ELEMENT_SET_NO": 999, "REV_AT_EPOCH": 559, "BSTAR": 0.080696657, "MEAN_MOTION_DOT": 0.04336102, "MEAN_MOTION_DDOT": 0}, "tle": {"line1": "1 66380U 25257A   25342.10112922  .04336102  00000+0  80697-1 0  9997", "line2": "2 66380  53.1605 286.5075 0028745 295.0034  64.7988 15.43616721  5594"}}, "geometry": {"type": "Point", "coordinates": [-71.10617916539545, 7.649693789741087]}}, {"type": "Feature", "properties": {"norad_id": 66381, "name": "STARLINK-35158", "group": "last-30-days", "lat": -7.308115635882886, "lon": -82.3673468163033, "alt_km": 449.5738534347647, "timestamp": "2025-12-08T19:31:47.634961+00:00", "meta": {"OBJECT_NAME": "STARLINK-35158", "OBJECT_ID": "2025-257B", "EPOCH": "2025-12-08T05:32:52.449504", "MEAN_MOTION": 15.39584676, "ECCENTRICITY": 0.00013303, "INCLINATION": 53.1602, "RA_OF_ASC_NODE": 285.8959, "ARG_OF_PERICENTER": 120.5709, "MEAN_ANOMALY": 239.5428, "EPHEMERIS_TYPE": 0, "CLASSIFICATION_TYPE": "U", "NORAD_CAT_ID": 66381, "ELEMENT_SET_NO": 999, "REV_AT_EPOCH": 567, "BSTAR": 0.001206314, "MEAN_MOTION_DOT": 0.00048101, "MEAN_MOTION_DDOT": 0}, "tle": {"line1": "1 66381U 25257B   25342.23116261  .00048101  00000+0  12063-2 0  9990", "line2": "2 66381  53.1602 285.8959 0001330 120.5709 239.5428 15.39584676  5675"}}, "geometry": {"type": "Point", "coordinates": [-82.3673468163033, -7.308115635882886]}}, {"type": "Feature", "properties": {"norad_id": 66382, "name": "STARLINK-35639", "group": "last-30-days", "lat": 11.881548216018496, "lon": -67.82296155566573, "alt_km": 445.90669510521275, "timestamp": "2025-12-08T19:31:47.634973+00:00", "meta": {"OBJECT_NAME": "STARLINK-35639", "OBJECT_ID": "2025-257C", "EPOCH": "2025-12-08T05:26:39.828768", "MEAN_MOTION": 15.39646356, "ECCENTRICITY": 6.971e-05, "INCLINATION": 53.1601, "RA_OF_ASC_NODE": 285.8679, "ARG_OF_PERICENTER": 65.6148, "MEAN_ANOMALY": 294.4929, "EPHEMERIS_TYPE": 0, "CLASSIFICATION_TYPE": "U", "NORAD_CAT_ID": 66382, "ELEMENT_SET_NO": 999, "REV_AT_EPOCH": 567, "BSTAR": 0.0013331214, "MEAN_MOTION_DOT": 0.00053344, "MEAN_MOTION_DDOT": 0}, "tle": {"line1": "1 66382U 25257C   25342.22684987  .00053344  00000+0  13331-2 0  9999", "line2": "2 66382  53.1601 285.8679 0000697  65.6148 294.4929 15.39646356  5675"}}, "geometry": {"type": "Point", "coordinates": [-67.82296155566573, 11.881548216018496]}}, {"type": "Feature", "properties": {"norad_id": 66383, "name": "STARLINK-35690", "group": "last-30-days", "lat": 31.416532736898553, "lon": -49.69778677416369, "alt_km": 441.91937726178367, "timestamp": "2025-12-08T19:31:47.634983+00:00", "meta": {"OBJECT_NAME": "STARLINK-35690", "OBJECT_ID": "2025-257D", "EPOCH": "2025-12-08T06:53:27.557664", "MEAN_MOTION": 15.3963385, "ECCENTRICITY": 0.00017372, "INCLINATION": 53.1611, "RA_OF_ASC_NODE": 285.5323, "ARG_OF_PERICENTER": 38.9123, "MEAN_ANOMALY": 321.2007, "EPHEMERIS_TYPE": 0, "CLASSIFICATION_TYPE": "U", "NORAD_CAT_ID": 66383, "ELEMENT_SET_NO": 999, "REV_AT_EPOCH": 568, "BSTAR": 0.001773198, "MEAN_MOTION_DOT": 0.00071225, "MEAN_MOTION_DDOT": 0}, "tle": {"line1": "1 66383U 25257D   25342.28712451  .00071225  00000+0  17732-2 0  9991", "line2": "2 66383  53.1611 285.5323 0001737  38.9123 321.2007 15.39633850  5684"}}, "geometry": {"type": "Point", "coordinates": [-49.69778677416369, 31.416532736898553]}}, {"type": "Feature", "properties": {"norad_id": 66384, "name": "STARLINK-35662", "group": "last-30-days", "lat": 32.69830312879845, "lon": -48.18311305295155, "alt_km": 442.81981938635, "timestamp": "2025-12-08T19:31:47.634994+00:00", "meta": {"OBJECT_NAME": "STARLINK-35662", "OBJECT_ID": "2025-257E", "EPOCH": "2025-12-08T06:52:58.643904", "MEAN_MOTION": 15.3963087, "ECCENTRICITY": 8.571e-05, "INCLINATION": 53.1598, "RA_OF_ASC_NODE": 285.5316, "ARG_OF_PERICENTER": 115.2866, "MEAN_ANOMALY": 244.8228, "EPHEMERIS_TYPE": 0, "CLASSIFICATION_TYPE": "U", "NORAD_CAT_ID": 66384, "ELEMENT_SET_NO": 999, "REV_AT_EPOCH": 568, "BSTAR": 0.0011718568, "MEAN_MOTION_DOT": 0.00046778, "MEAN_MOTION_DDOT": 0}, "tle": {"line1": "1 66384U 25257E   25342.28678986  .00046778  00000+0  11719-2 0  9990", "line2": "2 66384  53.1598 285.5316 0000857 115.2866 244.8228 15.39630870  5680"}}, "geometry": {"type": "Point", "coordinates": [-48.18311305295155, 32.69830312879845]}}, {"type": "Feature", "properties": {"norad_id": 66385, "name": "STARLINK-35659", "group": "last-30-days", "lat": 13.240771834069358, "lon": -66.74115715849321, "alt_km": 445.86197645259927, "timestamp": "2025-12-08T19:31:47.635004+00:00", "meta": {"OBJECT_NAME": "STARLINK-35659", "OBJECT_ID": "2025-257F", "EPOCH": "2025-12-08T05:26:12.849504", "MEAN_MOTION": 15.39615436, "ECCENTRICITY": 9.942e-05, "INCLINATION": 53.1607, "RA_OF_ASC_NODE": 285.8664, "ARG_OF_PERICENTER": 99.7139, "MEAN_ANOMALY": 260.3978, "EPHEMERIS_TYPE": 0, "CLASSIFICATION_TYPE": "U", "NORAD_CAT_ID": 66385, "ELEMENT_SET_NO": 999, "REV_AT_EPOCH": 567, "BSTAR": 0.0024699972, "MEAN_MOTION_DOT": 0.00099684, "MEAN_MOTION_DDOT": 0}, "tle": {"line1": "1 66385U 25257F   25342.22653761  .00099684  00000+0  24700-2 0  9997", "line2": "2 66385  53.1607 285.8664 0000994  99.7139 260.3978 15.39615436  5677"}}, "geometry": {"type": "Point", "coordinates": [-66.74115715849321, 13.240771834069358]}}]}